NORAD_CAT_ID,OBJECT_NAME,OBJECT_TYPE,EPOCH,MEAN_MOTION,ECCENTRICITY,INCLINATION,RA_OF_ASC_NODE,ARG_OF_PERICENTER,MEAN_ANOMALY,BSTAR,MEAN_MOTION_DOT,MEAN_MOTION_DDOT,TLE_LINE0,TLE_LINE1,TLE_LINE2,SEMIMAJOR_AXIS,PERIOD,APOGEE,PERIGEE,DECAYED
56788.0,STARLINK-6336,PAYLOAD,2024-03-07 03:19:16,14.9832589,0.0002712,70.0015,11.5071,264.9685,95.1164,7.374e-05,7.87e-06,0.0,0 STARLINK-6336,1 56788U 23078X   24067.13838161  .00000787  00000-0  73740-4 0  9991,2 56788  70.0015  11.5071 0002712 264.9685  95.1164 14.98325890 43705,6950.206,96.107,573.955,570.186,0.0
56788.0,STARLINK-6336,PAYLOAD,2024-03-07 12:56:04,14.98329802,0.0002798,70.0015,10.4975,266.1653,93.9186,-3.7601e-05,-5.42e-06,0.0,0 STARLINK-6336,1 56788U 23078X   24067.53894253 -.00000542  00000-0 -37601-4 0  9996,2 56788  70.0015  10.4975 0002798 266.1653  93.9186 14.98329802 43504,6950.194,96.107,574.003,570.114,0.0
56788.0,STARLINK-6336,PAYLOAD,2024-03-08 03:21:16,14.98333183,0.0002728,70.0015,8.9828,265.4103,94.6744,6.8866e-06,-1.1e-07,0.0,0 STARLINK-6336,1 56788U 23078X   24068.13977929 -.00000011  00000-0  68866-5 0  9993,2 56788  70.0015   8.9828 0002728 265.4103  94.6744 14.98333183 43851,6950.183,96.107,573.944,570.152,0.0
56788.0,STARLINK-6336,PAYLOAD,2024-03-08 12:58:05,14.98332269,0.0002227,70.0031,7.971,275.7899,84.3006,-9.5653e-05,-1.234e-05,0.0,0 STARLINK-6336,1 56788U 23078X   24068.54034307 -.00001234  00000-0 -95653-4 0  9994,2 56788  70.0031   7.9710 0002227 275.7899  84.3006 14.98332269 43657,6950.186,96.107,573.599,570.503,0.0
56788.0,STARLINK-6336,PAYLOAD,2024-03-09 03:23:18,14.98324155,0.0002548,70.0028,6.4555,282.3084,77.779,0.00010064,1.108e-05,0.0,0 STARLINK-6336,1 56788U 23078X   24069.14118277  .00001108  00000-0  10064-3 0  9990,2 56788  70.0028   6.4555 0002548 282.3084  77.7790 14.98324155 44001,6950.211,96.107,573.847,570.305,0.0
56788.0,STARLINK-6336,PAYLOAD,2024-03-09 13:00:05,14.98339365,0.0003227,70.0008,5.4466,272.575,87.5039,-0.00010395,-1.333e-05,0.0,0 STARLINK-6336,1 56788U 23078X   24069.54173464 -.00001333  00000-0 -10395-3 0  9992,2 56788  70.0008   5.4466 0003227 272.5750  87.5039 14.98339365 43806,6950.164,96.106,574.272,569.786,0.0
56788.0,STARLINK-6336,PAYLOAD,2024-03-10 03:25:18,14.98330367,0.0003049,70.0009,3.9328,269.1628,90.9182,-1.2982e-05,-2.48e-06,0.0,0 STARLINK-6336,1 56788U 23078X   24070.14257839 -.00000248  00000-0 -12982-4 0  9998,2 56788  70.0009   3.9328 0003049 269.1628  90.9182 14.98330367 44154,6950.192,96.107,574.176,569.938,0.0
56788.0,STARLINK-6336,PAYLOAD,2024-03-10 13:02:07,14.98327558,0.0002308,70.0028,2.9217,272.6942,87.3953,-8.6081e-05,-1.12e-05,0.0,0 STARLINK-6336,1 56788U 23078X   24070.54314337 -.00001120  00000-0 -86081-4 0  9990,2 56788  70.0028   2.9217 0002308 272.6942  87.3953 14.98327558 43957,6950.2,96.107,573.67,570.461,0.0
56788.0,STARLINK-6336,PAYLOAD,2024-03-10 22:38:55,14.98326931,0.0002791,70.0015,1.9123,269.0073,91.0767,-2.2874e-05,-3.66e-06,0.0,0 STARLINK-6336,1 56788U 23078X   24070.94370106 -.00000366  00000-0 -22874-4 0  9991,2 56788  70.0015   1.9123 0002791 269.0073  91.0767 14.98326931 44016,6950.202,96.107,574.007,570.128,0.0
56788.0,STARLINK-6336,PAYLOAD,2024-03-11 05:03:27,14.983334,0.000297,70.001,1.2392,268.3864,91.6955,-2.4258e-05,-3.82e-06,0.0,0 STARLINK-6336,1 56788U 23078X   24071.21073696 -.00000382  00000-0 -24258-4 0  9992,2 56788  70.0010   1.2392 0002970 268.3864  91.6955 14.98333400 44318,6950.182,96.107,574.112,569.983,0.0
56788.0,STARLINK-6336,PAYLOAD,2024-03-11 13:04:08,14.98332073,0.0002843,70.0013,0.3973,269.5875,90.4958,-6.7599e-05,-8.99e-06,0.0,0 STARLINK-6336,1 56788U 23078X   24071.54453910 -.00000899  00000-0 -67599-4 0  9997,2 56788  70.0013   0.3973 0002843 269.5875  90.4958 14.98332073 44102,6950.186,96.107,574.027,570.076,0.0
56788.0,STARLINK-6336,PAYLOAD,2024-03-12 05:05:28,14.98335918,0.0003186,70.0005,358.7154,267.7119,92.3676,-5.2874e-05,-7.24e-06,0.0,0 STARLINK-6336,1 56788U 23078X   24072.21213594 -.00000724  00000-0 -52874-4 0  9991,2 56788  70.0005 358.7154 0003186 267.7119  92.3676 14.98335918 44464,6950.175,96.107,574.254,569.825,0.0
56788.0,STARLINK-6336,PAYLOAD,2024-03-13 11:32:02,14.98330313,0.0002578,70.002,355.516,273.9008,86.1856,1.1264e-05,4.1e-07,0.0,0 STARLINK-6336,1 56788U 23078X   24073.48057878  .00000041  00000-0  11264-4 0  9990,2 56788  70.0020 355.5160 0002578 273.9008  86.1856 14.98330313 44659,6950.192,96.107,573.849,570.265,0.0
56788.0,STARLINK-6336,PAYLOAD,2024-03-13 22:44:58,14.98336769,0.0002156,70.0023,354.3379,277.9928,82.0987,-9.931e-05,-1.278e-05,0.0,0 STARLINK-6336,1 56788U 23078X   24073.94789865 -.00001278  00000-0 -99310-4 0  9992,2 56788  70.0023 354.3379 0002156 277.9928  82.0987 14.98336769 44468,6950.172,96.107,573.535,570.539,0.0
56788.0,STARLINK-6336,PAYLOAD,2024-03-14 05:09:30,14.98338732,0.0002526,70.0021,353.6651,273.9944,86.0927,-4.155e-05,-5.89e-06,0.0,0 STARLINK-6336,1 56788U 23078X   24074.21493397 -.00000589  00000-0 -41550-4 0  9992,2 56788  70.0021 353.6651 0002526 273.9944  86.0927 14.98338732 44769,6950.166,96.106,573.786,570.275,0.0
56788.0,STARLINK-6336,PAYLOAD,2024-03-14 21:10:51,14.98330144,0.0002548,70.0024,351.9831,267.4027,92.6841,-6.2044e-05,-8.33e-06,0.0,0 STARLINK-6336,1 56788U 23078X   24074.88253939 -.00000833  00000-0 -62044-4 0  9994,2 56788  70.0024 351.9831 0002548 267.4027  92.6841 14.98330144 44865,6950.192,96.107,573.828,570.287,0.0
56788.0,STARLINK-6336,PAYLOAD,2024-03-15 22:49:00,14.98328916,0.0002722,70.0015,349.2899,268.4554,91.6293,-1.7239e-05,-2.99e-06,0.0,0 STARLINK-6336,1 56788U 23078X   24075.95069815 -.00000299  00000-0 -17239-4 0  9993,2 56788  70.0015 349.2899 0002722 268.4554  91.6293 14.98328916 44762,6950.196,96.107,573.953,570.169,0.0
56788.0,STARLINK-6336,PAYLOAD,2024-03-16 03:37:24,14.98330559,0.0002729,70.0015,348.7846,264.1589,95.9259,-1.1479e-05,-2.3e-06,0.0,0 STARLINK-6336,1 56788U 23078X   24076.15097666 -.00000230  00000-0 -11479-4 0  9996,2 56788  70.0015 348.7846 0002729 264.1589  95.9259 14.98330559 45054,6950.191,96.107,573.953,570.159,0.0
56788.0,STARLINK-6336,PAYLOAD,2024-03-16 22:51:01,14.9832605,0.0002827,70.0013,346.7643,265.161,94.9226,-1.1026e-05,-2.24e-06,0.0,0 STARLINK-6336,1 56788U 23078X   24076.95209999 -.00000224  00000-0 -11026-4 0  9999,2 56788  70.0013 346.7643 0002827 265.1610  94.9226 14.98326050 44918,6950.205,96.107,574.035,570.105,0.0
56788.0,STARLINK-6336,PAYLOAD,2024-03-17 03:39:25,14.98329265,0.000278,70.0015,346.2597,265.6844,94.3997,2.8264e-05,2.44e-06,0.0,0 STARLINK-6336,1 56788U 23078X   24077.15237710  .00000244  00000-0  28264-4 0  9996,2 56788  70.0015 346.2597 0002780 265.6844  94.3997 14.98329265 45208,6950.195,96.107,573.992,570.128,0.0
56788.0,STARLINK-6336,PAYLOAD,2024-03-17 21:16:54,14.98330978,0.0002796,70.0015,344.4083,268.4066,91.6773,1.8672e-05,1.3e-06,0.0,0 STARLINK-6336,1 56788U 23078X   24077.88673615  .00000130  00000-0  18672-4 0  9990,2 56788  70.0015 344.4083 0002796 268.4066  91.6773 14.98330978 45050,6950.19,96.107,573.998,570.112,0.0
56788.0,STARLINK-6336,PAYLOAD,2024-03-18 03:41:26,14.98333133,0.000279,70.0016,343.735,271.3155,88.7684,4.2837e-05,4.18e-06,0.0,0 STARLINK-6336,1 56788U 23078X   24078.15377403  .00000418  00000-0  42837-4 0  9996,2 56788  70.0016 343.7350 0002790 271.3155  88.7684 14.98333133 45353,6950.183,96.107,573.987,570.109,0.0
56788.0,STARLINK-6336,PAYLOAD,2024-03-18 21:18:54,14.98332411,0.0002839,70.0015,341.8833,268.8171,91.2662,5.2783e-06,-3e-07,0.0,0 STARLINK-6336,1 56788U 23078X   24078.88813423 -.00000030  00000-0  52783-5 0  9996,2 56788  70.0015 341.8833 0002839 268.8171  91.2662 14.98332411 45207,6950.185,96.107,574.024,570.077,0.0
56788.0,STARLINK-6336,PAYLOAD,2024-03-19 02:07:19,14.98300943,0.0002581,70.0017,341.3783,270.239,89.8474,0.00052151,6.13e-05,0.0,0 STARLINK-6336,1 56788U 23078X   24079.08842100  .00006130  00000-0  52151-3 0  9996,2 56788  70.0017 341.3783 0002581 270.2390  89.8474 14.98300943 45492,6950.283,96.109,573.942,570.354,0.0
56788.0,STARLINK-6336,PAYLOAD,2024-03-19 03:43:27,14.98284,0.0002422,70.0017,341.2097,268.9102,91.178,0.00086903,0.00010279,0.0,0 STARLINK-6336,1 56788U 23078X   24079.15518408  .00010279  00000-0  86903-3 0  9996,2 56788  70.0017 341.2097 0002422 268.9102  91.1780 14.98284000 45242,6950.335,96.11,573.884,570.517,0.0
56788.0,STARLINK-6336,PAYLOAD,2024-03-19 21:20:55,14.98335898,0.0002744,70.0014,339.3579,263.7827,96.302,9.8577e-05,1.084e-05,0.0,0 STARLINK-6336,1 56788U 23078X   24079.88952583  .00001084  00000-0  98577-4 0  9997,2 56788  70.0014 339.3579 0002744 263.7827  96.3020 14.98335898 45613,6950.175,96.107,573.947,570.133,0.0
56788.0,STARLINK-6336,PAYLOAD,2024-03-20 00:33:10,14.98347214,0.00026,70.0014,339.0212,262.525,97.5613,-2.3543e-05,-3.74e-06,0.0,0 STARLINK-6336,1 56788U 23078X   24080.02304129 -.00000374  00000-0 -23543-4 0  9996,2 56788  70.0014 339.0212 0002600 262.5250  97.5613 14.98347214 45630,6950.14,96.106,573.812,570.198,0.0
56788.0,STARLINK-6336,PAYLOAD,2024-03-20 03:45:26,14.98342175,0.0002734,70.0014,338.6843,265.2476,94.8371,0.00012384,1.385e-05,0.0,0 STARLINK-6336,1 56788U 23078X   24080.15655953  .00001385  00000-0  12384-3 0  9995,2 56788  70.0014 338.6843 0002734 265.2476  94.8371 14.98342175 45398,6950.155,96.106,573.92,570.12,0.0
56788.0,STARLINK-6336,PAYLOAD,2024-03-20 19:46:49,14.98319648,0.0003082,70.0009,337.0018,259.4676,100.6136,-0.00015292,-1.917e-05,0.0,0 STARLINK-6336,1 56788U 23078X   24080.82418081 -.00001917  00000-0 -15292-3 0  9992,2 56788  70.0009 337.0018 0003082 259.4676 100.6136 14.98319648 45757,6950.225,96.108,574.232,569.948,0.0
56788.0,STARLINK-6336,PAYLOAD,2024-03-20 22:59:05,14.9831535,0.0003022,70.0011,336.6644,258.5425,101.5395,-0.00011391,-1.451e-05,0.0,0 STARLINK-6336,1 56788U 23078X   24080.95770272 -.00001451  00000-0 -11391-3 0  9998,2 56788  70.0011 336.6644 0003022 258.5425 101.5395 14.98315350 45513,6950.238,96.108,574.204,570.003,0.0
